[{"OBJECT_NAME":"FLOCK 4G-14","OBJECT_ID":"2025-009BL","EPOCH":"2026-03-09T18:12:31.432032","MEAN_MOTION":15.27197201,"ECCENTRICITY":0.00030064,"INCLINATION":97.4064,"RA_OF_ASC_NODE":151.1836,"ARG_OF_PERICENTER":318.3639,"MEAN_ANOMALY":41.7371,"EPHEMERIS_TYPE":0,"CLASSIFICATION_TYPE":"U","NORAD_CAT_ID":62667,"ELEMENT_SET_NO":999,"REV_AT_EPOCH":6371,"BSTAR":0.00042675627,"MEAN_MOTION_DOT":0.0001131,"MEAN_MOTION_DDOT":0},{"OBJECT_NAME":"STARLINK-34158","OBJECT_ID":"2025-101C","EPOCH":"2026-03-09T03:27:58.027968","MEAN_MOTION":15.27603972,"ECCENTRICITY":0.00013604,"INCLINATION":43.0035,"RA_OF_ASC_NODE":0.9277,"ARG_OF_PERICENTER":284.6533,"MEAN_ANOMALY":75.4168,"EPHEMERIS_TYPE":0,"CLASSIFICATION_TYPE":"U","NORAD_CAT_ID":63996,"ELEMENT_SET_NO":999,"REV_AT_EPOCH":4697,"BSTAR":0.0011659989,"MEAN_MOTION_DOT":0.00031986,"MEAN_MOTION_DDOT":0}]
